<?xml version="1.0" encoding="UTF-8"?>
<kml xmlns="http://www.opengis.net/kml/2.2" xmlns:gx="http://www.google.com/kml/ext/2.2" xmlns:kml="http://www.opengis.net/kml/2.2" xmlns:atom="http://www.w3.org/2005/Atom">
<Document>
	<name>Weymouth Speed Week</name>
	<open>1</open>
	<Style id="boundaries">
		<LineStyle>
			<color>ff00ffff</color>
			<width>2</width>
		</LineStyle>
		<PolyStyle>
			<color>8000ffff</color>
		</PolyStyle>
	</Style>
	<Placemark>
		<name>Start</name>
		<Point>
			<coordinates>-2.4587123,50.5768675,0</coordinates>
		</Point>
	</Placemark>
	<Placemark>
		<name>Finish</name>
		<Point>
			<coordinates>-2.4619811,50.580948,0</coordinates>
		</Point>
	</Placemark>
	<Placemark>
		<name>Boundaries</name>
		<styleUrl>#boundaries</styleUrl>
		<Polygon>
			<tessellate>1</tessellate>
			<outerBoundaryIs>
				<LinearRing>
					<coordinates>
-2.448960760795,50.584601848773,0
-2.451667639243818,50.58045214188181,0
-2.451781279980938,50.5804827693101,0
-2.451894061785991,50.58051465135055,0
-2.452005950311745,50.58054777829409,0
-2.4521169114827877,50.580582140052556,0
-2.452226911505895,50.58061772616172,0
-2.4523359168803185,50.58065452578447,0
-2.4524438944079816,50.580692527714106,0
-2.452550811203586,50.580731720377784,0
-2.4526566347046197,50.58077209183999,0
-2.4527613326812707,50.58081362980619,0
-2.452864873246239,50.5808563216266,0
-2.4529672248644423,50.58090015429999,0
-2.4530683563626177,50.580945114477686,0
-2.4531682369388124,50.58099118846757,0
-2.453266836171761,50.58103836223832,0
-2.453364124030149,50.58108662142362,0
-2.453460070881757,50.58113595132658,0
-2.4535546475024836,50.581186336924176,0
-2.453647825085244,50.58123776287182,0
-2.453739575248742,50.58129021350806,0
-2.4538298700461167,50.58134367285931,0
-2.4539186819734504,50.58139812464475,0
-2.4540059839781474,50.58145355228126,0
-2.4540917494671737,50.58150993888844,0
-2.454175952315157,50.581567267293806,0
-2.4542585668723467,50.58162552003798,0
-2.454339567972425,50.58168467938002,0
-2.4544189309401787,50.58174472730278,0
-2.454496631599013,50.58180564551845,0
-2.454572646278319,50.58186741547409,0
-2.4546469518206897,50.5819300183573,0
-2.454719525588975,50.58199343510191,0
-2.454790345473178,50.58205764639381,0
-2.4548593898972,50.58212263267684,0
-2.454926637825413,50.5821883741587,0
-2.454992068769073,50.58225485081703,0
-2.4550556627925664,50.582322042405465,0
-2.45511740051949,50.58238992845982,0
-2.4551772631385567,50.582458488304276,0
-2.455235232409334,50.582527701057764,0
-2.4552912906678066,50.58259754564023,0
-2.4553454208317644,50.58266800077911,0
-2.455397606406013,50.58273904501577,0
-2.4554478314874086,50.582810656712056,0
-2.4554960807697075,50.582882814056916,0
-2.448960760795,50.584601848773,0
					</coordinates>
				</LinearRing>
			</outerBoundaryIs>
		</Polygon>
	</Placemark>
</Document>
</kml>