<?xml version="1.0" encoding="UTF-8"?>
<kml xmlns="http://www.opengis.net/kml/2.2" xmlns:gx="http://www.google.com/kml/ext/2.2" xmlns:kml="http://www.opengis.net/kml/2.2" xmlns:atom="http://www.w3.org/2005/Atom">
<Document>
	<name>Weymouth Speed Week - P5</name>
	<open>1</open>
	<Style id="boundaries">
		<LineStyle>
			<color>ff00ffff</color>
			<width>2</width>
		</LineStyle>
		<PolyStyle>
			<color>8000ffff</color>
		</PolyStyle>
	</Style>
	<Placemark>
		<name>Start</name>
		<Point>
			<coordinates>-2.45434,50.5766095,0</coordinates>
		</Point>
	</Placemark>
	<Placemark>
		<name>Finish</name>
		<Point>
			<coordinates>-2.4580096,50.5806578,0</coordinates>
		</Point>
	</Placemark>
	<Placemark>
		<name>Boundaries</name>
		<styleUrl>#boundaries</styleUrl>
		<Polygon>
			<tessellate>1</tessellate>
			<outerBoundaryIs>
				<LinearRing>
					<coordinates>
						-2.4635101,50.5732391,0 -2.4671806,50.5772874,0 -2.4488387,50.5840281,0 -2.4451698,50.5799798,0 -2.4635101,50.5732391,0
					</coordinates>
				</LinearRing>
			</outerBoundaryIs>
		</Polygon>
	</Placemark>
</Document>
</kml>